LEMUR-2-AMANDA-SVANTE   
1 48269U 21034B   26068.77637527  .00030872  00000+0  11134-2 0  9996
2 48269  97.5829 144.8625 0002703 205.4721 154.6385 15.28469003265849
STARLINK-31737          
1 59537U 24074D   26068.09112546  .00001233  00000+0  54299-4 0  9997
2 59537  43.0045 346.8346 0001081 269.7064  90.3664 15.27589441105926
